{
  "version": 1,
  "fetchedAt": "2026-06-21T12:32:46.387Z",
  "source": "celestrak-gp",
  "counts": {
    "station": 24,
    "satellite": 520,
    "debris": 250
  },
  "objects": [
    {
      "id": "64876",
      "name": "IONOSFERA-M 3",
      "noradId": 64876,
      "line1": "1 64876U 25155A   26172.18758938  .00000032  00000+0  34193-4 0  9994",
      "line2": "2 64876  98.6033 133.9920 0001265 150.0377 210.0874 14.21487002 46973",
      "category": "satellite"
    },
    {
      "id": "64877",
      "name": "IONOSFERA-M 4",
      "noradId": 64877,
      "line1": "1 64877U 25155B   26172.15203598  .00000034  00000+0  34956-4 0  9998",
      "line2": "2 64877  98.6031 133.8747 0001199 119.4255 240.7042 14.21489244 46964",
      "category": "satellite"
    },
    {
      "id": "64899",
      "name": "MICROCARB",
      "noradId": 64899,
      "line1": "1 64899U 25156A   26171.47982279  .00000362  00000+0  65076-4 0  9998",
      "line2": "2 64899  97.9830 248.5584 0014993 260.7208  99.2304 14.72328320 48451",
      "category": "satellite"
    },
    {
      "id": "64900",
      "name": "CO3D 3",
      "noradId": 64900,
      "line1": "1 64900U 25156B   26171.47876997  .00003433  00000+0  16165-3 0  9996",
      "line2": "2 64900  97.4324 250.1245 0001587 126.6035 233.5346 15.20194218 50030",
      "category": "satellite"
    },
    {
      "id": "64901",
      "name": "CO3D 4",
      "noradId": 64901,
      "line1": "1 64901U 25156C   26171.41309958  .00000218  00000+0  13182-4 0  9994",
      "line2": "2 64901  97.4331 250.0596 0000098 241.9959 118.1266 15.20197278 50026",
      "category": "satellite"
    },
    {
      "id": "64902",
      "name": "CO3D 2",
      "noradId": 64902,
      "line1": "1 64902U 25156D   26171.37975280  .00003283  00000+0  15474-3 0  9997",
      "line2": "2 64902  97.4328 249.9261 0001570 106.6316 253.5091 15.20193266 50011",
      "category": "satellite"
    },
    {
      "id": "64903",
      "name": "CO3D 1",
      "noradId": 64903,
      "line1": "1 64903U 25156E   26171.05079051  .00004283  00000+0  20076-3 0  9999",
      "line2": "2 64903  97.4325 249.6020 0001352 114.2620 245.8756 15.20215547 49961",
      "category": "satellite"
    },
    {
      "id": "65055",
      "name": "PRSC-S1",
      "noradId": 65055,
      "line1": "1 65055U 25164A   26172.24173579  .00003340  00000+0  23399-3 0  9993",
      "line2": "2 65055  41.1302 264.9770 0005956  10.9607 349.1336 15.06486727 49049",
      "category": "satellite"
    },
    {
      "id": "66514",
      "name": "SENTINEL-6B",
      "noradId": 66514,
      "line1": "1 66514U 25264A   26171.28694495 -.00000044  00000+0  73559-4 0  9996",
      "line2": "2 66514  66.0399 128.7401 0007997 269.1256  90.8843 12.80929983 27566",
      "category": "satellite"
    },
    {
      "id": "66655",
      "name": "CAS500-3",
      "noradId": 66655,
      "line1": "1 66655U 25274F   26171.37510272  .00000922  00000+0  10546-3 0  9993",
      "line2": "2 66655  97.7445  99.3536 0006853 102.0514 258.1471 14.88327389 30628",
      "category": "satellite"
    },
    {
      "id": "67304",
      "name": "CSG-3",
      "noradId": 67304,
      "line1": "1 67304U 26001A   26172.04713909  .00000205  00000+0  32367-4 0  9991",
      "line2": "2 67304  97.8888 355.5929 0001406  95.2779 264.8595 14.82155866 25033",
      "category": "satellite"
    },
    {
      "id": "68835",
      "name": "PRSC-E03",
      "noradId": 68835,
      "line1": "1 68835U 26092A   26172.16475108  .00002165  00000+0  15028-3 0  9991",
      "line2": "2 68835  38.0017  66.2248 0003038  39.8962 320.2023 15.06685873  8559",
      "category": "satellite"
    },
    {
      "id": "69013",
      "name": "CAS500-2",
      "noradId": 69013,
      "line1": "1 69013U 26100AK  26171.44244846  .00005146  00000+0  23744-3 0  9999",
      "line2": "2 69013  97.4070  69.2409 0010360  24.6187 335.5541 15.20622267  7305",
      "category": "satellite"
    }
  ]
}